[
  {
    "COMMENT": "GENERATED VIA SPACETRACK.ORG API",
    "ORIGINATOR": "18 SPCS",
    "NORAD_CAT_ID": "43682",
    "OBJECT_NAME": "H-2A R/B",
    "OBJECT_TYPE": "ROCKET BODY",
    "CLASSIFICATION_TYPE": "U",
    "INTLDES": "18084L",
    "EPOCH": "2019-05-23 22:16:44",
    "EPOCH_MICROSECONDS": "74560",
    "MEAN_MOTION": "15.02607919",
    "ECCENTRICITY": "0.0057444",
    "INCLINATION": "98.8793",
    "RA_OF_ASC_NODE": "288.5309",
    "ARG_OF_PERICENTER": "332.8148",
    "MEAN_ANOMALY": "27.0063",
    "EPHEMERIS_TYPE": "0",
    "ELEMENT_SET_NO": "999",
    "REV_AT_EPOCH": "3100",
    "BSTAR": "0.000026904",
    "MEAN_MOTION_DOT": "0.00000286",
    "MEAN_MOTION_DDOT": "0",
    "FILE": "2480119",
    "TLE_LINE0": "0 H-2A R/B",
    "TLE_LINE1": "1 43682U 18084L   19143.92828790 +.00000286 +00000-0 +26904-4 0  9998",
    "TLE_LINE2": "2 43682 098.8793 288.5309 0057444 332.8148 027.0063 15.02607919031009",
    "OBJECT_ID": "2018-084L",
    "OBJECT_NUMBER": "43682",
    "SEMIMAJOR_AXIS": "6936.995",
    "PERIOD": "95.833",
    "APOGEE": "598.709",
    "PERIGEE": "519.011",
    "DECAYED": "0"
  },
  {
    "COMMENT": "GENERATED VIA SPACETRACK.ORG API",
    "ORIGINATOR": "18 SPCS",
    "NORAD_CAT_ID": "43682",
    "OBJECT_NAME": "H-2A R/B",
    "OBJECT_TYPE": "ROCKET BODY",
    "CLASSIFICATION_TYPE": "U",
    "INTLDES": "18084L",
    "EPOCH": "2019-05-24 09:27:58",
    "EPOCH_MICROSECONDS": "199904",
    "MEAN_MOTION": "15.02608296",
    "ECCENTRICITY": "0.0057429",
    "INCLINATION": "98.8792",
    "RA_OF_ASC_NODE": "289.0645",
    "ARG_OF_PERICENTER": "331.3029",
    "MEAN_ANOMALY": "28.5037",
    "EPHEMERIS_TYPE": "0",
    "ELEMENT_SET_NO": "999",
    "REV_AT_EPOCH": "3107",
    "BSTAR": "0.000027255",
    "MEAN_MOTION_DOT": "0.00000291",
    "MEAN_MOTION_DDOT": "0",
    "FILE": "2480339",
    "TLE_LINE0": "0 H-2A R/B",
    "TLE_LINE1": "1 43682U 18084L   19144.39442361  .00000291  00000-0  27255-4 0  9992",
    "TLE_LINE2": "2 43682  98.8792 289.0645 0057429 331.3029  28.5037 15.02608296 31075",
    "OBJECT_ID": "2018-084L",
    "OBJECT_NUMBER": "43682",
    "SEMIMAJOR_AXIS": "6936.994",
    "PERIOD": "95.833",
    "APOGEE": "598.697",
    "PERIGEE": "519.021",
    "DECAYED": "0"
  },
  {
    "COMMENT": "GENERATED VIA SPACETRACK.ORG API",
    "ORIGINATOR": "18 SPCS",
    "NORAD_CAT_ID": "43682",
    "OBJECT_NAME": "H-2A R/B",
    "OBJECT_TYPE": "ROCKET BODY",
    "CLASSIFICATION_TYPE": "U",
    "INTLDES": "18084L",
    "EPOCH": "2019-05-24 22:15:05",
    "EPOCH_MICROSECONDS": "753952",
    "MEAN_MOTION": "15.02608615",
    "ECCENTRICITY": "0.00574",
    "INCLINATION": "98.8793",
    "RA_OF_ASC_NODE": "289.6744",
    "ARG_OF_PERICENTER": "329.5595",
    "MEAN_ANOMALY": "30.2292",
    "EPHEMERIS_TYPE": "0",
    "ELEMENT_SET_NO": "999",
    "REV_AT_EPOCH": "3115",
    "BSTAR": "0.00002657",
    "MEAN_MOTION_DOT": "0.00000281",
    "MEAN_MOTION_DDOT": "0",
    "FILE": "2480762",
    "TLE_LINE0": "0 H-2A R/B",
    "TLE_LINE1": "1 43682U 18084L   19144.92714993 +.00000281 +00000-0 +26570-4 0  9992",
    "TLE_LINE2": "2 43682 098.8793 289.6744 0057400 329.5595 030.2292 15.02608615031155",
    "OBJECT_ID": "2018-084L",
    "OBJECT_NUMBER": "43682",
    "SEMIMAJOR_AXIS": "6936.993",
    "PERIOD": "95.833",
    "APOGEE": "598.676",
    "PERIGEE": "519.040",
    "DECAYED": "0"
  },
  {
    "COMMENT": "GENERATED VIA SPACETRACK.ORG API",
    "ORIGINATOR": "18 SPCS",
    "NORAD_CAT_ID": "43682",
    "OBJECT_NAME": "H-2A R/B",
    "OBJECT_TYPE": "ROCKET BODY",
    "CLASSIFICATION_TYPE": "U",
    "INTLDES": "18084L",
    "EPOCH": "2019-05-25 20:37:33",
    "EPOCH_MICROSECONDS": "994272",
    "MEAN_MOTION": "15.02608814",
    "ECCENTRICITY": "0.005711",
    "INCLINATION": "98.8797",
    "RA_OF_ASC_NODE": "290.743",
    "ARG_OF_PERICENTER": "326.6463",
    "MEAN_ANOMALY": "33.115",
    "EPHEMERIS_TYPE": "0",
    "ELEMENT_SET_NO": "999",
    "REV_AT_EPOCH": "3129",
    "BSTAR": "0.00002271",
    "MEAN_MOTION_DOT": "0.00000228",
    "MEAN_MOTION_DDOT": "0",
    "FILE": "2481624",
    "TLE_LINE0": "0 H-2A R/B",
    "TLE_LINE1": "1 43682U 18084L   19145.85942123  .00000228  00000-0  22710-4 0  9996",
    "TLE_LINE2": "2 43682  98.8797 290.7430 0057110 326.6463  33.1150 15.02608814 31295",
    "OBJECT_ID": "2018-084L",
    "OBJECT_NUMBER": "43682",
    "SEMIMAJOR_AXIS": "6936.992",
    "PERIOD": "95.833",
    "APOGEE": "598.475",
    "PERIGEE": "519.240",
    "DECAYED": "0"
  },
  {
    "COMMENT": "GENERATED VIA SPACETRACK.ORG API",
    "ORIGINATOR": "18 SPCS",
    "NORAD_CAT_ID": "43682",
    "OBJECT_NAME": "H-2A R/B",
    "OBJECT_TYPE": "ROCKET BODY",
    "CLASSIFICATION_TYPE": "U",
    "INTLDES": "18084L",
    "EPOCH": "2019-05-25 22:13:27",
    "EPOCH_MICROSECONDS": "461856",
    "MEAN_MOTION": "15.02608726",
    "ECCENTRICITY": "0.0057084",
    "INCLINATION": "98.8801",
    "RA_OF_ASC_NODE": "290.8194",
    "ARG_OF_PERICENTER": "326.3958",
    "MEAN_ANOMALY": "33.3643",
    "EPHEMERIS_TYPE": "0",
    "ELEMENT_SET_NO": "999",
    "REV_AT_EPOCH": "3130",
    "BSTAR": "0.00002177",
    "MEAN_MOTION_DOT": "0.00000215",
    "MEAN_MOTION_DDOT": "0",
    "FILE": "2481832",
    "TLE_LINE0": "0 H-2A R/B",
    "TLE_LINE1": "1 43682U 18084L   19145.92601229 +.00000215 +00000-0 +21770-4 0  9994",
    "TLE_LINE2": "2 43682 098.8801 290.8194 0057084 326.3958 033.3643 15.02608726031308",
    "OBJECT_ID": "2018-084L",
    "OBJECT_NUMBER": "43682",
    "SEMIMAJOR_AXIS": "6936.993",
    "PERIOD": "95.833",
    "APOGEE": "598.457",
    "PERIGEE": "519.259",
    "DECAYED": "0"
  },
  {
    "COMMENT": "GENERATED VIA SPACETRACK.ORG API",
    "ORIGINATOR": "18 SPCS",
    "NORAD_CAT_ID": "43682",
    "OBJECT_NAME": "H-2A R/B",
    "OBJECT_TYPE": "ROCKET BODY",
    "CLASSIFICATION_TYPE": "U",
    "INTLDES": "18084L",
    "EPOCH": "2019-05-26 22:11:49",
    "EPOCH_MICROSECONDS": "168896",
    "MEAN_MOTION": "15.02609031",
    "ECCENTRICITY": "0.0057029",
    "INCLINATION": "98.8801",
    "RA_OF_ASC_NODE": "291.9629",
    "ARG_OF_PERICENTER": "323.1326",
    "MEAN_ANOMALY": "36.5973",
    "EPHEMERIS_TYPE": "0",
    "ELEMENT_SET_NO": "999",
    "REV_AT_EPOCH": "3145",
    "BSTAR": "0.000019699",
    "MEAN_MOTION_DOT": "0.00000186",
    "MEAN_MOTION_DDOT": "0",
    "FILE": "2482969",
    "TLE_LINE0": "0 H-2A R/B",
    "TLE_LINE1": "1 43682U 18084L   19146.92487464 +.00000186 +00000-0 +19699-4 0  9992",
    "TLE_LINE2": "2 43682 098.8801 291.9629 0057029 323.1326 036.5973 15.02609031031453",
    "OBJECT_ID": "2018-084L",
    "OBJECT_NUMBER": "43682",
    "SEMIMAJOR_AXIS": "6936.992",
    "PERIOD": "95.833",
    "APOGEE": "598.418",
    "PERIGEE": "519.296",
    "DECAYED": "0"
  },
  {
    "COMMENT": "GENERATED VIA SPACETRACK.ORG API",
    "ORIGINATOR": "18 SPCS",
    "NORAD_CAT_ID": "43682",
    "OBJECT_NAME": "H-2A R/B",
    "OBJECT_TYPE": "ROCKET BODY",
    "CLASSIFICATION_TYPE": "U",
    "INTLDES": "18084L",
    "EPOCH": "2019-05-26 23:47:42",
    "EPOCH_MICROSECONDS": "636480",
    "MEAN_MOTION": "15.02608941",
    "ECCENTRICITY": "0.0057025",
    "INCLINATION": "98.8801",
    "RA_OF_ASC_NODE": "292.039",
    "ARG_OF_PERICENTER": "322.9091",
    "MEAN_ANOMALY": "36.8191",
    "EPHEMERIS_TYPE": "0",
    "ELEMENT_SET_NO": "999",
    "REV_AT_EPOCH": "3146",
    "BSTAR": "0.000018674",
    "MEAN_MOTION_DOT": "0.00000172",
    "MEAN_MOTION_DDOT": "0",
    "FILE": "2483087",
    "TLE_LINE0": "0 H-2A R/B",
    "TLE_LINE1": "1 43682U 18084L   19146.99146570  .00000172  00000-0  18674-4 0  9996",
    "TLE_LINE2": "2 43682  98.8801 292.0390 0057025 322.9091  36.8191 15.02608941 31467",
    "OBJECT_ID": "2018-084L",
    "OBJECT_NUMBER": "43682",
    "SEMIMAJOR_AXIS": "6936.992",
    "PERIOD": "95.833",
    "APOGEE": "598.415",
    "PERIGEE": "519.299",
    "DECAYED": "0"
  },
  {
    "COMMENT": "GENERATED VIA SPACETRACK.ORG API",
    "ORIGINATOR": "18 SPCS",
    "NORAD_CAT_ID": "43682",
    "OBJECT_NAME": "H-2A R/B",
    "OBJECT_TYPE": "ROCKET BODY",
    "CLASSIFICATION_TYPE": "U",
    "INTLDES": "18084L",
    "EPOCH": "2019-05-27 22:10:10",
    "EPOCH_MICROSECONDS": "848288",
    "MEAN_MOTION": "15.02609531",
    "ECCENTRICITY": "0.0056988",
    "INCLINATION": "98.8802",
    "RA_OF_ASC_NODE": "293.1065",
    "ARG_OF_PERICENTER": "319.8657",
    "MEAN_ANOMALY": "39.8358",
    "EPHEMERIS_TYPE": "0",
    "ELEMENT_SET_NO": "999",
    "REV_AT_EPOCH": "3160",
    "BSTAR": "0.000019261",
    "MEAN_MOTION_DOT": "0.0000018",
    "MEAN_MOTION_DDOT": "0",
    "FILE": "2483976",
    "TLE_LINE0": "0 H-2A R/B",
    "TLE_LINE1": "1 43682U 18084L   19147.92373667 +.00000180 +00000-0 +19261-4 0  9991",
    "TLE_LINE2": "2 43682 098.8802 293.1065 0056988 319.8657 039.8358 15.02609531031609",
    "OBJECT_ID": "2018-084L",
    "OBJECT_NUMBER": "43682",
    "SEMIMAJOR_AXIS": "6936.990",
    "PERIOD": "95.833",
    "APOGEE": "598.388",
    "PERIGEE": "519.323",
    "DECAYED": "0"
  },
  {
    "COMMENT": "GENERATED VIA SPACETRACK.ORG API",
    "ORIGINATOR": "18 SPCS",
    "NORAD_CAT_ID": "43682",
    "OBJECT_NAME": "H-2A R/B",
    "OBJECT_TYPE": "ROCKET BODY",
    "CLASSIFICATION_TYPE": "U",
    "INTLDES": "18084L",
    "EPOCH": "2019-05-28 10:57:18",
    "EPOCH_MICROSECONDS": "439488",
    "MEAN_MOTION": "15.02609692",
    "ECCENTRICITY": "0.0056991",
    "INCLINATION": "98.8793",
    "RA_OF_ASC_NODE": "293.7151",
    "ARG_OF_PERICENTER": "318.1021",
    "MEAN_ANOMALY": "41.5845",
    "EPHEMERIS_TYPE": "0",
    "ELEMENT_SET_NO": "999",
    "REV_AT_EPOCH": "3168",
    "BSTAR": "0.000018302",
    "MEAN_MOTION_DOT": "0.00000167",
    "MEAN_MOTION_DDOT": "0",
    "FILE": "2484401",
    "TLE_LINE0": "0 H-2A R/B",
    "TLE_LINE1": "1 43682U 18084L   19148.45646342  .00000167  00000-0  18302-4 0  9993",
    "TLE_LINE2": "2 43682  98.8793 293.7151 0056991 318.1021  41.5845 15.02609692 31688",
    "OBJECT_ID": "2018-084L",
    "OBJECT_NUMBER": "43682",
    "SEMIMAJOR_AXIS": "6936.990",
    "PERIOD": "95.833",
    "APOGEE": "598.389",
    "PERIGEE": "519.320",
    "DECAYED": "0"
  }
]